QIANFAN-25              
1 61558U 24185G   25243.58785439  .00000617  00000+0  37004-3 0  9990
2 61558  88.9744  89.8777 0005793 260.2638  99.7889 14.05773401 55017
QIANFAN-26              
1 61559U 24185H   25243.62050596  .00000305  00000+0  29261-3 0  9995
2 61559  88.9757  90.8944 0005006 344.0778  16.0230 13.77731984 54472
QIANFAN-27              
1 61560U 24185J   25243.61610583  .00000667  00000+0  26750-3 0  9995
2 61560  88.9750  89.0482 0005849 269.3590  90.6934 14.27146937 55452
QIANFAN-28              
1 61561U 24185K   25243.57421292  .00001142  00000+0  45735-3 0  9991
2 61561  88.9766  89.0487 0004901 271.0987  88.9646 14.27724972 55454
QIANFAN-29              
1 61562U 24185L   25243.56771763  .00000207  00000+0  30141-3 0  9998
2 61562  88.9736  91.9854 0010174   0.8953 359.2214 13.50959913 53860
QIANFAN-30              
1 61563U 24185M   25243.61273379  .00000205  00000+0  30467-3 0  9994
2 61563  88.9755  91.4666 0007137 348.7994  11.2997 13.49938018 54159
QIANFAN-31              
1 61564U 24185N   25243.59679549  .00000160  00000+0  20528-3 0  9998
2 61564  88.9739  91.4336 0006740 347.6747  12.4242 13.57911024 54163
QIANFAN-32              
1 61565U 24185P   25243.56431166  .00000202  00000+0  29506-3 0  9999
2 61565  88.9798  91.5746 0009795  11.2115 348.9253 13.50690783 54114
